start=new Date('2022-08-19T00:00:00.000Z').valueOf();
sats=[{"COUNTRY_CODE":"US","EPOCH":"2022-08-18T07:27:42.103008","SITE":"AFETR","TLE_LINE1":"1 46058U 20055AH  22230.31090397 -.00000851  00000-0 -38281-4 0  9998","PERIAPSIS":"546.302","EPHEMERIS_TYPE":"0","REF_FRAME":"TEME","MEAN_MOTION_DDOT":"0.0000000000000","TIME_SYSTEM":"UTC","ELEMENT_SET_NO":"999","PERIOD":"95.592","MEAN_MOTION_DOT":"-0.00000851","OBJECT_NAME":"STARLINK-1564","ECCENTRICITY":"0.00013370","MEAN_MOTION":"15.06395386","RCS_SIZE":"LARGE","APOAPSIS":"548.154","CLASSIFICATION_TYPE":"U","MEAN_ELEMENT_THEORY":"SGP4","REV_AT_EPOCH":"11265","CENTER_NAME":"EARTH","ARG_OF_PERICENTER":"71.1301","LAUNCH_DATE":"2020-08-07","OBJECT_TYPE":"PAYLOAD","MEAN_ANOMALY":"288.9833","DECAY_DATE":null,"OBJECT_ID":"2020-055AH","NORAD_CAT_ID":"46058","FILE":"3539420","RA_OF_ASC_NODE":"189.7510","TLE_LINE2":"2 46058  53.0549 189.7510 0001337  71.1301 288.9833 15.06395386112651","INCLINATION":"53.0549","BSTAR":"-0.00003828100000","SEMIMAJOR_AXIS":"6925.363","GP_ID":"210448354"},{"OBJECT_TYPE":"PAYLOAD","LAUNCH_DATE":"2020-08-07","ARG_OF_PERICENTER":"77.7222","CENTER_NAME":"EARTH","REV_AT_EPOCH":"11314","MEAN_ELEMENT_THEORY":"SGP4","CLASSIFICATION_TYPE":"U","SEMIMAJOR_AXIS":"6925.355","GP_ID":"210438731","BSTAR":"0.00010802000000","INCLINATION":"53.0543","TLE_LINE2":"2 46059  53.0543 189.7311 0001513  77.7222 282.3936 15.06397924113142","RA_OF_ASC_NODE":"189.7311","FILE":"3539281","NORAD_CAT_ID":"46059","OBJECT_ID":"2020-055AJ","DECAY_DATE":null,"MEAN_ANOMALY":"282.3936","EPHEMERIS_TYPE":"0","PERIAPSIS":"546.172","TLE_LINE1":"1 46059U 20055AJ  22230.31827148  .00001328  00000-0  10802-3 0  9997","SITE":"AFETR","EPOCH":"2022-08-18T07:38:18.655872","COUNTRY_CODE":"US","APOAPSIS":"548.268","RCS_SIZE":"LARGE","MEAN_MOTION":"15.06397924","PERIOD":"95.592","ECCENTRICITY":"0.00015130","MEAN_MOTION_DOT":"0.00001328","OBJECT_NAME":"STARLINK-1570","ELEMENT_SET_NO":"999","TIME_SYSTEM":"UTC","MEAN_MOTION_DDOT":"0.0000000000000","REF_FRAME":"TEME"},{"CLASSIFICATION_TYPE":"U","MEAN_ELEMENT_THEORY":"SGP4","REV_AT_EPOCH":"11315","ARG_OF_PERICENTER":"66.5172","LAUNCH_DATE":"2020-08-07","CENTER_NAME":"EARTH","OBJECT_TYPE":"PAYLOAD","DECAY_DATE":null,"MEAN_ANOMALY":"293.5978","NORAD_CAT_ID":"46060","OBJECT_ID":"2020-055AK","RA_OF_ASC_NODE":"189.7462","FILE":"3539281","INCLINATION":"53.0552","TLE_LINE2":"2 46060  53.0552 189.7462 0001532  66.5172 293.5978 15.06395215113154","GP_ID":"210438980","SEMIMAJOR_AXIS":"6925.363","BSTAR":"0.00007488900000","EPOCH":"2022-08-18T07:33:00.395424","COUNTRY_CODE":"US","TLE_LINE1":"1 46060U 20055AK  22230.31458791  .00000834  00000-0  74889-4 0  9990","SITE":"AFETR","EPHEMERIS_TYPE":"0","PERIAPSIS":"546.167","REF_FRAME":"TEME","MEAN_MOTION_DDOT":"0.0000000000000","ELEMENT_SET_NO":"999","TIME_SYSTEM":"UTC","OBJECT_NAME":"STARLINK-1572","PERIOD":"95.592","MEAN_MOTION_DOT":"0.00000834","ECCENTRICITY":"0.00015320","MEAN_MOTION":"15.06395215","RCS_SIZE":"LARGE","APOAPSIS":"548.289"},{"MEAN_ANOMALY":"291.5916","DECAY_DATE":null,"OBJECT_ID":"2020-055AL","NORAD_CAT_ID":"46061","RA_OF_ASC_NODE":"189.7821","FILE":"3539281","TLE_LINE2":"2 46061  53.0548 189.7821 0001967  68.5283 291.5916 15.06405641113184","INCLINATION":"53.0548","BSTAR":"0.00013302000000","GP_ID":"210439729","SEMIMAJOR_AXIS":"6925.331","CLASSIFICATION_TYPE":"U","MEAN_ELEMENT_THEORY":"SGP4","REV_AT_EPOCH":"11318","CENTER_NAME":"EARTH","LAUNCH_DATE":"2020-08-07","ARG_OF_PERICENTER":"68.5283","OBJECT_TYPE":"PAYLOAD","REF_FRAME":"TEME","MEAN_MOTION_DDOT":"0.0000000000000","TIME_SYSTEM":"UTC","ELEMENT_SET_NO":"999","ECCENTRICITY":"0.00019670","PERIOD":"95.592","MEAN_MOTION_DOT":"0.00001700","OBJECT_NAME":"STARLINK-1573","MEAN_MOTION":"15.06405641","RCS_SIZE":"LARGE","APOAPSIS":"548.558","COUNTRY_CODE":"US","EPOCH":"2022-08-18T07:22:22.942272","SITE":"AFETR","TLE_LINE1":"1 46061U 20055AL  22230.30720998  .00001700  00000-0  13302-3 0  9996","PERIAPSIS":"545.834","EPHEMERIS_TYPE":"0"},{"ECCENTRICITY":"0.00017970","PERIOD":"95.591","MEAN_MOTION_DOT":"0.00001898","OBJECT_NAME":"STARLINK-1574","APOAPSIS":"548.419","RCS_SIZE":"LARGE","MEAN_MOTION":"15.06412832","REF_FRAME":"TEME","ELEMENT_SET_NO":"999","TIME_SYSTEM":"UTC","MEAN_MOTION_DDOT":"0.0000000000000","EPHEMERIS_TYPE":"0","PERIAPSIS":"545.930","EPOCH":"2022-08-18T20:54:27.639936","COUNTRY_CODE":"US","TLE_LINE1":"1 46062U 20055AM  22230.87115324  .00001898  00000-0  14626-3 0  9998","SITE":"AFETR","RA_OF_ASC_NODE":"187.2340","FILE":"3539615","GP_ID":"210473211","SEMIMAJOR_AXIS":"6925.309","BSTAR":"0.00014626000000","INCLINATION":"53.0533","TLE_LINE2":"2 46062  53.0533 187.2340 0001797  64.2852 295.8323 15.06412832113239","DECAY_DATE":null,"MEAN_ANOMALY":"295.8323","NORAD_CAT_ID":"46062","OBJECT_ID":"2020-055AM","LAUNCH_DATE":"2020-08-07","ARG_OF_PERICENTER":"64.2852","CENTER_NAME":"EARTH","REV_AT_EPOCH":"11323","OBJECT_TYPE":"PAYLOAD","CLASSIFICATION_TYPE":"U","MEAN_ELEMENT_THEORY":"SGP4"},{"PERIAPSIS":"546.248","EPHEMERIS_TYPE":"0","SITE":"AFETR","TLE_LINE1":"1 46063U 20055AN  22230.27035562  .00001952  00000-0  14992-3 0  9995","COUNTRY_CODE":"US","EPOCH":"2022-08-18T06:29:18.725568","APOAPSIS":"548.181","RCS_SIZE":"LARGE","MEAN_MOTION":"15.06399652","MEAN_MOTION_DOT":"0.00001952","PERIOD":"95.592","OBJECT_NAME":"STARLINK-1577","ECCENTRICITY":"0.00013960","TIME_SYSTEM":"UTC","ELEMENT_SET_NO":"999","MEAN_MOTION_DDOT":"0.0000000000000","REF_FRAME":"TEME","OBJECT_TYPE":"PAYLOAD","CENTER_NAME":"EARTH","LAUNCH_DATE":"2020-08-07","ARG_OF_PERICENTER":"78.0820","REV_AT_EPOCH":"11317","MEAN_ELEMENT_THEORY":"SGP4","CLASSIFICATION_TYPE":"U","BSTAR":"0.00014992000000","SEMIMAJOR_AXIS":"6925.350","GP_ID":"210438232","TLE_LINE2":"2 46063  53.0533 189.9479 0001396  78.0820 282.0326 15.06399652113173","INCLINATION":"53.0533","RA_OF_ASC_NODE":"189.9479","FILE":"3539281","OBJECT_ID":"2020-055AN","NORAD_CAT_ID":"46063","MEAN_ANOMALY":"282.0326","DECAY_DATE":null},{"OBJECT_ID":"2020-055AP","NORAD_CAT_ID":"46064","MEAN_ANOMALY":"293.1662","DECAY_DATE":null,"BSTAR":"0.00052011000000","GP_ID":"210471711","SEMIMAJOR_AXIS":"6925.300","TLE_LINE2":"2 46064  53.0530 187.4092 0001671  66.9503 293.1662 15.06415916113263","INCLINATION":"53.0530","RA_OF_ASC_NODE":"187.4092","FILE":"3539615","MEAN_ELEMENT_THEORY":"SGP4","CLASSIFICATION_TYPE":"U","OBJECT_TYPE":"PAYLOAD","CENTER_NAME":"EARTH","ARG_OF_PERICENTER":"66.9503","LAUNCH_DATE":"2020-08-07","REV_AT_EPOCH":"11326","TIME_SYSTEM":"UTC","ELEMENT_SET_NO":"999","MEAN_MOTION_DDOT":"0.0000000000000","REF_FRAME":"TEME","APOAPSIS":"548.322","MEAN_MOTION":"15.06415916","RCS_SIZE":"LARGE","OBJECT_NAME":"STARLINK-1583","PERIOD":"95.591","MEAN_MOTION_DOT":"0.00007477","ECCENTRICITY":"0.00016710","SITE":"AFETR","TLE_LINE1":"1 46064U 20055AP  22230.83429314  .00007477  00000-0  52011-3 0  9992","COUNTRY_CODE":"US","EPOCH":"2022-08-18T20:01:22.927296","PERIAPSIS":"546.008","EPHEMERIS_TYPE":"0"},{"REF_FRAME":"TEME","ELEMENT_SET_NO":"999","TIME_SYSTEM":"UTC","MEAN_MOTION_DDOT":"0.0000000000000","PERIOD":"95.592","MEAN_MOTION_DOT":"0.00002356","ECCENTRICITY":"0.00016660","OBJECT_NAME":"STARLINK-1515","APOAPSIS":"548.341","MEAN_MOTION":"15.06408693","RCS_SIZE":"LARGE","EPOCH":"2022-08-18T05:32:12.535296","COUNTRY_CODE":"US","TLE_LINE1":"1 46065U 20055AQ  22230.23070064  .00002356  00000-0  17699-3 0  9995","SITE":"AFETR","EPHEMERIS_TYPE":"0","PERIAPSIS":"546.033","DECAY_DATE":null,"MEAN_ANOMALY":"296.6493","NORAD_CAT_ID":"46065","OBJECT_ID":"2020-055AQ","FILE":"3539281","RA_OF_ASC_NODE":"170.1211","GP_ID":"210439232","SEMIMAJOR_AXIS":"6925.322","BSTAR":"0.00017699000000","INCLINATION":"53.0553","TLE_LINE2":"2 46065  53.0553 170.1211 0001666  63.4667 296.6493 15.06408693113431","CLASSIFICATION_TYPE":"U","MEAN_ELEMENT_THEORY":"SGP4","LAUNCH_DATE":"2020-08-07","ARG_OF_PERICENTER":"63.4667","CENTER_NAME":"EARTH","REV_AT_EPOCH":"11343","OBJECT_TYPE":"PAYLOAD"},{"EPHEMERIS_TYPE":"0","PERIAPSIS":"546.029","EPOCH":"2022-08-18T05:38:52.766016","COUNTRY_CODE":"US","TLE_LINE1":"1 46066U 20055AR  22230.23533294  .00002512  00000-0  18741-3 0  9998","SITE":"AFETR","PERIOD":"95.592","OBJECT_NAME":"STARLINK-1525","MEAN_MOTION_DOT":"0.00002512","ECCENTRICITY":"0.00016780","MEAN_MOTION":"15.06407226","RCS_SIZE":"LARGE","APOAPSIS":"548.353","REF_FRAME":"TEME","MEAN_MOTION_DDOT":"0.0000000000000","ELEMENT_SET_NO":"999","TIME_SYSTEM":"UTC","REV_AT_EPOCH":"11344","ARG_OF_PERICENTER":"74.7184","LAUNCH_DATE":"2020-08-07","CENTER_NAME":"EARTH","OBJECT_TYPE":"PAYLOAD","CLASSIFICATION_TYPE":"U","MEAN_ELEMENT_THEORY":"SGP4","FILE":"3539281","RA_OF_ASC_NODE":"170.1085","INCLINATION":"53.0547","TLE_LINE2":"2 46066  53.0547 170.1085 0001678  74.7184 285.3991 15.06407226113446","SEMIMAJOR_AXIS":"6925.326","GP_ID":"210439962","BSTAR":"0.00018741000000","DECAY_DATE":null,"MEAN_ANOMALY":"285.3991","NORAD_CAT_ID":"46066","OBJECT_ID":"2020-055AR"},{"EPHEMERIS_TYPE":"0","PERIAPSIS":"545.978","EPOCH":"2022-08-18T05:42:49.636800","COUNTRY_CODE":"US","TLE_LINE1":"1 46067U 20055AS  22230.23807450  .00001567  00000-0  12403-3 0  9995","SITE":"AFETR","MEAN_MOTION_DOT":"0.00001567","PERIOD":"95.592","OBJECT_NAME":"STARLINK-1529","ECCENTRICITY":"0.00017610","RCS_SIZE":"LARGE","MEAN_MOTION":"15.06405065","APOAPSIS":"548.418","REF_FRAME":"TEME","MEAN_MOTION_DDOT":"0.0000000000000","ELEMENT_SET_NO":"999","TIME_SYSTEM":"UTC","REV_AT_EPOCH":"11345","ARG_OF_PERICENTER":"68.9327","LAUNCH_DATE":"2020-08-07","CENTER_NAME":"EARTH","OBJECT_TYPE":"PAYLOAD","CLASSIFICATION_TYPE":"U","MEAN_ELEMENT_THEORY":"SGP4","FILE":"3539281","RA_OF_ASC_NODE":"170.0756","INCLINATION":"53.0538","TLE_LINE2":"2 46067  53.0538 170.0756 0001761  68.9327 291.1850 15.06405065113457","SEMIMAJOR_AXIS":"6925.333","GP_ID":"210438732","BSTAR":"0.00012403000000","DECAY_DATE":null,"MEAN_ANOMALY":"291.1850","NORAD_CAT_ID":"46067","OBJECT_ID":"2020-055AS"}];
